1 29853U 99025EX  18242.19299954  .00000278  00000-0  24051-3 0  9999
2 29853  98.4161 217.6488 0174312   5.0222 355.2635 13.86755228587380
1 29854U 99025EY  18241.65954052  .00000099  00000-0  12245-3 0  9990
2 29854  99.1025 134.6373 0150543 357.7867  61.5775 13.81421410585851
1 29855U 99025EZ  18241.91978587 +.00000511 +00000-0 +38208-3 0  9995
2 29855 098.1677 099.4948 0215375 284.0801 203.0830 13.88206597586833
1 29856U 99025FA  18242.29592333  .00001043  00000-0  32962-3 0  9991
2 29856  98.7709 358.8017 0428428 316.8450  91.5563 14.00746722588394
1 29857U 99025FB  18241.71178559  .00000317  00000-0  32404-3 0  9992
2 29857  98.4734 145.4821 0206481 285.9374  71.9115 13.74196528581680
1 29858U 99025FC  18242.19122937  .00000371  00000-0  39701-3 0  9992
2 29858  99.0651  64.2581 0213651 220.0809 203.1043 13.70494064580508
1 29859U 99025FD  18242.00095304  .00000257  00000-0  25920-3 0  9991
2 29859  98.3688  34.4334 0325314 103.5546 260.2054 13.62965263576426
1 29860U 99025FE  18241.73897299  .00000736  00000-0  77759-3 0  9994
2 29860  98.6388 154.2873 0243825 211.5742 203.6295 13.65255385577239
1 29865U 99025FK  18241.97999699  .00000390  00000-0  76500-4 0  9992
2 29865  98.9877 233.4790 0164900  71.3950 349.3929 14.61059021617533
1 29866U 99025FL  18241.96511755 +.00000147 +00000-0 +35230-4 0  9990
2 29866 098.1370 285.6347 0221995 239.4723 242.3314 14.54356388615798
1 29868U 99025FN  18242.38798877  .00000491  00000-0  77850-4 0  9997
2 29868  98.3198 293.4338 0269032  62.5541   0.3797 14.55473312614484
1 29869U 99025FP  18241.93982219 +.00000143 +00000-0 +68347-4 0  9998
2 29869 099.0180 047.4231 0092360 232.5708 250.4182 14.31887195606923
1 29870U 99025FQ  18241.82597492 -.00000015  00000-0  98663-5 0  9997
2 29870  98.4448 280.5803 0122711 122.2390 293.8188 14.28060306605992
1 29871U 99025FR  18242.10174722  .00000280  00000-0  12224-3 0  9997
2 29871  99.0640  54.6334 0069709 324.7012 153.6161 14.30702273605746
1 29872U 99025FS  18241.60419987  .00000274  00000-0  89054-4 0  9996
2 29872  98.6272 279.6638 0262357 278.8544  78.3020 14.29550670605042
1 29873U 99025FT  18241.92115084 +.00000529 +00000-0 +40877-3 0  9995
2 29873 099.3208 357.6115 0093029 211.0788 263.0437 13.95511110591647
1 29874U 99025FU  18241.66157711 +.00000476 +00000-0 +29337-3 0  9999
2 29874 098.3700 278.1794 0138275 066.2362 055.4357 14.04994496592980
1 29875U 99025FV  18241.77738163 -.00000004 +00000-0 +16987-4 0  9994
2 29875 098.6661 325.0055 0081903 262.5123 223.1258 14.24287350604257
1 29876U 99025FW  18241.95387597 +.00000024 +00000-0 +30103-4 0  9993
2 29876 098.3007 035.6240 0062766 182.3226 298.5333 14.18638225601642
1 29877U 99025FX  18241.79098679  .00000149  00000-0  89706-4 0  9997
2 29877  98.7431 274.5281 0049255   6.7242  45.0589 14.19870655601703
1 29878U 99025FY  18241.86984800 +.00000391 +00000-0 +14880-3 0  9995
2 29878 097.0069 128.0274 0122237 232.8891 126.1077 14.30795721602260
1 29880U 99025GA  18242.11937050  .00000337  00000-0  25684-3 0  9996
2 29880  98.1533  93.0551 0251952 290.5796 191.3279 13.85408465586581
1 29881U 99025GB  18242.26444167  .00000694  00000-0  82011-3 0  9998
2 29881  98.7380 125.2050 0310357 105.9267  19.8955 13.51974305572200
1 29884U 99025GE  18241.73778074  .00000352  00000-0  15776-3 0  9994
2 29884  99.5694 320.5125 0053271 183.8299 332.2097 14.28894242604663
1 29885U 99025GF  18242.74448543  .00000025  00000-0  33922-4 0  9993
2 29885  98.3718 337.2075 0119503 267.8864 218.2514 14.12012117599058
1 29886U 99025GG  18241.63153370  .00001199  00000-0  43487-3 0  9991
2 29886  99.2145 123.1470 0042408  37.4814  34.8124 14.34886211603186
1 29887U 99025GH  18241.93776845 +.00000238 +00000-0 +77475-4 0  9991
2 29887 099.0088 257.8702 0328730 145.3271 285.8351 14.21439477600771
1 29888U 99025GJ  18241.90228106 +.00000054 +00000-0 +37894-4 0  9998
2 29888 098.9704 345.6371 0294944 354.8764 004.9408 14.12960921598655
1 29889U 99025GK  18241.72479767 +.00000134 +00000-0 +91974-4 0  9998
2 29889 099.4554 165.0151 0159286 214.4436 163.8194 14.10296172597745
1 29890U 99025GL  18241.74138389 +.00000423 +00000-0 +25236-3 0  9992
2 29890 099.4521 154.2627 0019118 319.4340 040.5404 14.13080643597751
1 29891U 99025GM  18241.76419595 +.00000257 +00000-0 +20736-3 0  9991
2 29891 098.9898 304.2574 0067084 075.4968 039.9955 13.97946998592811
1 29892U 99025GN  18242.15506171  .00000874  00000-0  43525-3 0  9999
2 29892  99.2162 299.7145 0272472 175.9987 202.7989 14.02066209591695
1 29893U 99025GP  18242.42220135  .00000032  00000-0  60208-4 0  9997
2 29893  98.4890 211.3667 0174953 154.7774 329.1262 13.78359887584798
1 29894U 99025GQ  18241.91146716  .00000164  00000-0  18678-3 0  9992
2 29894  99.6044 225.2935 0173088 173.2739 242.5436 13.77982154584036
1 29895U 99025GR  18242.22829934  .00000600  00000-0  32744-3 0  9993
2 29895  99.8720 127.9686 0370537 213.5355 272.1371 13.86536080585009
1 29896U 99025GS  18241.70780785 +.00000201 +00000-0 +25395-3 0  9997
2 29896 099.5359 156.8277 0246248 077.1890 344.5913 13.62832341577618
1 29897U 99025GT  18242.02539361  .00000490  00000-0  62069-3 0  9995
2 29897  98.6282  54.6209 0321289 149.4946 333.3436 13.47829604570180
1 29898U 99025GU  18241.58160437 +.00000622 +00000-0 +47629-3 0  9992
2 29898 098.2072 260.6072 0481907 016.1121 097.1859 13.52242119570483
1 29899U 99025GV  18241.35419018 +.00000054 +00000-0 +12428-3 0  9998
2 29899 098.6769 026.9745 0353828 284.6339 071.5817 13.36707128565082
1 29901U 99025GX  18241.93435510 -.00000013 +00000-0 +27644-4 0  9994
2 29901 098.7642 035.6436 0384844 059.3572 054.0336 13.31836450564749
1 29903U 99025GZ  18241.73554180 +.00001050 +00000-0 +25821-3 0  9994
2 29903 098.9472 148.6012 0084646 019.1703 341.2644 14.52524758611516
1 29904U 99025HA  18241.88837768 +.00000018 +00000-0 +19993-4 0  9994
2 29904 099.0246 110.5187 0230977 237.8794 119.9788 14.36091953607992
1 29905U 99025HB  18241.92957600 +.00017897 +00000-0 +97186-3 0  9990
2 29905 099.2188 026.8950 0022892 186.6812 173.4112 15.14393626617394
1 29906U 99025HC  18241.71942098  .00000620  00000-0  28727-3 0  9994
2 29906  98.8359 292.8591 0050764  13.7436 346.5111 14.23757269601264
1 29907U 99025HD  18241.95149698 +.00000208 +00000-0 +16420-3 0  9995
2 29907 099.2389 239.1372 0087420 050.9323 010.4446 14.00739877592460
1 29909U 99025HF  18241.83623407 +.00000742 +00000-0 +31608-3 0  9997
2 29909 098.7740 296.7351 0060150 305.8123 115.0944 14.27245725602598
1 29911U 99025HH  18242.10694325  .00000282  00000-0  17582-3 0  9992
2 29911  98.9788 273.5769 0033673 153.8954 271.9880 14.12473814598179
1 29912U 99025HJ  18242.12782681  .00000445  00000-0  21759-3 0  9990
2 29912  98.8852 285.0001 0055010  36.3190  23.9844 14.22178860600818
1 29913U 99025HK  18241.62812490 +.00000055 +00000-0 +59942-4 0  9990
2 29913 098.9392 271.3808 0064964 173.5659 312.5291 14.04900140595667
1 29914U 99025HL  18242.02730970 -.00000173  00000-0 -82653-4 0  9996
2 29914  99.1588 264.4260 0035122 299.0967 113.6226 14.02068455594842
1 29915U 99025HM  18241.88725306 +.00002875 +00000-0 +31994-3 0  9997
2 29915 099.0407 296.5936 0062247 086.8574 273.9758 14.86723946618024
1 29916U 99025HN  18242.22282733  .00000232  00000-0  31390-3 0  9994
2 29916  99.2809  16.9470 0278064 181.0858 302.1028 13.54154298574128
1 29917U 99025HP  18241.57153696  .00000409  00000-0  46360-3 0  9996
2 29917  98.8815 279.8572 0234513 265.4669 252.0246 13.64663330577965
1 29918U 99025HQ  18241.93763932 +.00000549 +00000-0 +28461-3 0  9994
2 29918 099.0236 245.0523 0017872 053.3616 003.9493 14.19031474599397
1 29919U 99025HR  18241.94037615 +.00000017 +00000-0 +45111-4 0  9990
2 29919 098.4549 249.3748 0140209 056.1966 002.5338 13.84025565587063
1 29920U 99025HS  18242.05175090  .00000343  00000-0  25624-3 0  9993
2 29920  98.4066 274.1976 0139315 182.6535 232.0863 13.96053381591104
1 29921U 99025HT  18241.88416874 +.00000241 +00000-0 +17966-3 0  9999
2 29921 098.9978 271.8376 0046176 312.3256 174.8128 14.03825557595061
1 29922U 99025HU  18241.91641538 +.00000325 +00000-0 +25442-3 0  9992
2 29922 099.3467 232.0707 0095687 068.0743 354.3422 13.97267316592574
1 29923U 99025HV  18241.89406514 +.00000209 +00000-0 +14395-3 0  9999
2 29923 098.9081 273.5995 0019682 148.3940 336.4612 14.09713722597391
1 29924U 99025HW  18242.34875098 -.00000106  00000-0 -35766-4 0  9992
2 29924  98.9910 268.3235 0026992 186.4437 245.4333 14.08228828597563
1 29925U 99025HX  18241.90043656  .00001730  00000-0  28901-3 0  9995
2 29925  99.0317 226.4513 0067292 238.5963 178.7278 14.70014799614859
1 29926U 99025HY  18241.64585079  .00000094  00000-0  41080-4 0  9993
2 29926  98.4994 301.5775 0262233 267.3772 220.1641 14.28648799605503
1 29927U 99025HZ  18242.17820356  .00000809  00000-0  32757-3 0  9997
2 29927  99.1353  68.6170 0034033 117.8545 307.6147 14.30426089603614
1 29928U 99025JA  18242.39418649  .00000135  00000-0  14931-3 0  9996
2 29928  99.3862 187.0346 0148869 320.5706 160.0126 13.83963013586582
1 29929U 99025JB  18241.91992104 +.00000431 +00000-0 +34366-3 0  9990
2 29929 098.6110 311.0349 0143503 353.5068 059.0257 13.91278761588672
1 29930U 99025JC  18241.96651145 +.00000027 +00000-0 +30718-4 0  9993
2 29930 099.0307 008.8973 0169162 061.6179 057.2217 14.18533381601360
1 29931U 99025JD  18242.31069713 -.00000188  00000-0 -91930-4 0  9991
2 29931  99.1793 262.3234 0031070 277.7285 147.3632 14.02603506595052
1 29932U 99025JE  18241.05458552 +.00000095 +00000-0 +72598-4 0  9999
2 29932 098.8746 270.4751 0040139 109.7932 280.2560 14.14000155599336
1 29933U 99025JF  18241.94231163 +.00000828 +00000-0 +34399-3 0  9995
2 29933 098.8715 243.9365 0009734 301.6286 116.8070 14.29193419602719
1 29935U 99025JH  18241.40660873  .00000027  00000-0  32816-4 0  9996
2 29935  98.3648  43.6707 0151666 295.2658 130.4388 14.12882664599537
1 29938U 99025JL  18241.97023831 -.00000007 +00000-0 +22214-4 0  9998
2 29938 098.8678 270.5502 0033284 230.3667 194.1912 14.06169470596383
